{
  "type": "FeatureCollection",
  "features": [
    {
      "type": "Feature",
      "properties": {
        "norad_id": 31902,
        "name": "FENGYUN 1C DEB",
        "group": "fengyun-1c-debris",
        "lat": 29.74747936778358,
        "lon": -23.830952642427075,
        "alt_km": 777.8471079267938,
        "timestamp": "2025-12-27T16:33:30.507258+00:00",
        "meta_object_name": "FENGYUN 1C DEB",
        "meta_object_id": "1999-025CLD",
        "meta_epoch": "2025-12-23T10:12:05.114880",
        "meta_mean_motion": 14.23289586,
        "meta_eccentricity": 0.01812156,
        "meta_inclination": 98.5083,
        "meta_ra_of_asc_node": 336.9513,
        "meta_arg_of_pericenter": 118.1318,
        "meta_mean_anomaly": 33.9215,
        "meta_ephemeris_type": 0,
        "meta_classification_type": "U",
        "meta_norad_cat_id": 31902,
        "meta_element_set_no": 999,
        "meta_rev_at_epoch": 64943,
        "meta_bstar": 0.00018583997,
        "meta_mean_motion_dot": 4.56e-06,
        "meta_mean_motion_ddot": 0,
        "tle_line1": "1 31902U 99025CLD 25357.42505920  .00000456  00000+0  18584-3 0  9992",
        "tle_line2": "2 31902  98.5083 336.9513 0181215 118.1318  33.9215 14.23289586649438"
      },
      "geometry": {
        "type": "Point",
        "coordinates": [
          -23.830952642427075,
          29.74747936778358
        ]
      }
    },
    {
      "type": "Feature",
      "properties": {
        "norad_id": 31903,
        "name": "FENGYUN 1C DEB",
        "group": "fengyun-1c-debris",
        "lat": 80.15494310034691,
        "lon": -78.45408887524081,
        "alt_km": 691.8357280591681,
        "timestamp": "2025-12-27T16:33:30.507268+00:00",
        "meta_object_name": "FENGYUN 1C DEB",
        "meta_object_id": "1999-025CLE",
        "meta_epoch": "2025-12-26T10:34:31.744416",
        "meta_mean_motion": 14.60607026,
        "meta_eccentricity": 0.0129168,
        "meta_inclination": 99.2755,
        "meta_ra_of_asc_node": 350.4897,
        "meta_arg_of_pericenter": 354.6599,
        "meta_mean_anomaly": 5.3212,
        "meta_ephemeris_type": 0,
        "meta_classification_type": "U",
        "meta_norad_cat_id": 31903,
        "meta_element_set_no": 999,
        "meta_rev_at_epoch": 97595,
        "meta_bstar": 0.00089903,
        "meta_mean_motion_dot": 4.855e-05,
        "meta_mean_motion_ddot": 0,
        "tle_line1": "1 31903U 99025CLE 25360.44064519  .00004855  00000+0  89903-3 0  9993",
        "tle_line2": "2 31903  99.2755 350.4897 0129168 354.6599   5.3212 14.60607026975959"
      },
      "geometry": {
        "type": "Point",
        "coordinates": [
          -78.45408887524081,
          80.15494310034691
        ]
      }
    },
    {
      "type": "Feature",
      "properties": {
        "norad_id": 31905,
        "name": "FENGYUN 1C DEB",
        "group": "fengyun-1c-debris",
        "lat": 30.16622246988767,
        "lon": 164.15841308276097,
        "alt_km": 797.9474794656253,
        "timestamp": "2025-12-27T16:33:30.507278+00:00",
        "meta_object_name": "FENGYUN 1C DEB",
        "meta_object_id": "1999-025CLG",
        "meta_epoch": "2025-12-26T09:43:22.024128",
        "meta_mean_motion": 14.33157016,
        "meta_eccentricity": 0.0196755,
        "meta_inclination": 99.1517,
        "meta_ra_of_asc_node": 337.4243,
        "meta_arg_of_pericenter": 54.4234,
        "meta_mean_anomaly": 307.511,
        "meta_ephemeris_type": 0,
        "meta_classification_type": "U",
        "meta_norad_cat_id": 31905,
        "meta_element_set_no": 999,
        "meta_rev_at_epoch": 96820,
        "meta_bstar": 0.00071523,
        "meta_mean_motion_dot": 2.383e-05,
        "meta_mean_motion_ddot": 0,
        "tle_line1": "1 31905U 99025CLG 25360.40511602  .00002383  00000+0  71523-3 0  9994",
        "tle_line2": "2 31905  99.1517 337.4243 0196755  54.4234 307.5110 14.33157016968206"
      },
      "geometry": {
        "type": "Point",
        "coordinates": [
          164.15841308276097,
          30.16622246988767
        ]
      }
    },
    {
      "type": "Feature",
      "properties": {
        "norad_id": 31906,
        "name": "FENGYUN 1C DEB",
        "group": "fengyun-1c-debris",
        "lat": 42.32191363601454,
        "lon": 126.65094008252284,
        "alt_km": 777.3191571178031,
        "timestamp": "2025-12-27T16:33:30.507288+00:00",
        "meta_object_name": "FENGYUN 1C DEB",
        "meta_object_id": "1999-025CLH",
        "meta_epoch": "2025-12-27T08:11:19.216032",
        "meta_mean_motion": 14.2479404,
        "meta_eccentricity": 0.0049614,
        "meta_inclination": 98.6916,
        "meta_ra_of_asc_node": 134.313,
        "meta_arg_of_pericenter": 81.5506,
        "meta_mean_anomaly": 334.0307,
        "meta_ephemeris_type": 0,
        "meta_classification_type": "U",
        "meta_norad_cat_id": 31906,
        "meta_element_set_no": 999,
        "meta_rev_at_epoch": 95337,
        "meta_bstar": 0.0024144,
        "meta_mean_motion_dot": 5.661e-05,
        "meta_mean_motion_ddot": 0,
        "tle_line1": "1 31906U 99025CLH 25361.34119463  .00005661  00000+0  24144-2 0  9996",
        "tle_line2": "2 31906  98.6916 134.3130 0049614  81.5506 334.0307 14.24794040953376"
      },
      "geometry": {
        "type": "Point",
        "coordinates": [
          126.65094008252284,
          42.32191363601454
        ]
      }
    },
    {
      "type": "Feature",
      "properties": {
        "norad_id": 31910,
        "name": "FENGYUN 1C DEB",
        "group": "fengyun-1c-debris",
        "lat": 62.143106276539505,
        "lon": 6.765358804541202,
        "alt_km": 612.57499719734,
        "timestamp": "2025-12-27T16:33:30.507299+00:00",
        "meta_object_name": "FENGYUN 1C DEB",
        "meta_object_id": "1999-025CLM",
        "meta_epoch": "2025-12-27T07:58:37.072128",
        "meta_mean_motion": 14.47742469,
        "meta_eccentricity": 0.02282,
        "meta_inclination": 97.6658,
        "meta_ra_of_asc_node": 21.2049,
        "meta_arg_of_pericenter": 110.4157,
        "meta_mean_anomaly": 252.1704,
        "meta_ephemeris_type": 0,
        "meta_classification_type": "U",
        "meta_norad_cat_id": 31910,
        "meta_element_set_no": 999,
        "meta_rev_at_epoch": 64580,
        "meta_bstar": 0.0007086,
        "meta_mean_motion_dot": 3.593e-05,
        "meta_mean_motion_ddot": 0,
        "tle_line1": "1 31910U 99025CLM 25361.33237352  .00003593  00000+0  70860-3 0  9997",
        "tle_line2": "2 31910  97.6658  21.2049 0228200 110.4157 252.1704 14.47742469645800"
      },
      "geometry": {
        "type": "Point",
        "coordinates": [
          6.765358804541202,
          62.143106276539505
        ]
      }
    },
    {
      "type": "Feature",
      "properties": {
        "norad_id": 31913,
        "name": "FENGYUN 1C DEB",
        "group": "fengyun-1c-debris",
        "lat": 53.84265050053679,
        "lon": -90.24946327830592,
        "alt_km": 1032.6033172618745,
        "timestamp": "2025-12-27T16:33:30.507311+00:00",
        "meta_object_name": "FENGYUN 1C DEB",
        "meta_object_id": "1999-025CLQ",
        "meta_epoch": "2025-12-25T12:31:08.673024",
        "meta_mean_motion": 13.9142581,
        "meta_eccentricity": 0.0201911,
        "meta_inclination": 99.2939,
        "meta_ra_of_asc_node": 280.5274,
        "meta_arg_of_pericenter": 279.2611,
        "meta_mean_anomaly": 78.5764,
        "meta_ephemeris_type": 0,
        "meta_classification_type": "U",
        "meta_norad_cat_id": 31913,
        "meta_element_set_no": 999,
        "meta_rev_at_epoch": 56064,
        "meta_bstar": 0.0071027,
        "meta_mean_motion_dot": 0.00010564,
        "meta_mean_motion_ddot": 0,
        "tle_line1": "1 31913U 99025CLQ 25359.52162816  .00010564  00000+0  71027-2 0  9991",
        "tle_line2": "2 31913  99.2939 280.5274 0201911 279.2611  78.5764 13.91425810560642"
      },
      "geometry": {
        "type": "Point",
        "coordinates": [
          -90.24946327830592,
          53.84265050053679
        ]
      }
    },
    {
      "type": "Feature",
      "properties": {
        "norad_id": 31914,
        "name": "FENGYUN 1C DEB",
        "group": "fengyun-1c-debris",
        "lat": 72.93022326978466,
        "lon": -165.23585397127349,
        "alt_km": 617.6014696040911,
        "timestamp": "2025-12-27T16:33:30.507321+00:00",
        "meta_object_name": "FENGYUN 1C DEB",
        "meta_object_id": "1999-025CLR",
        "meta_epoch": "2025-12-24T13:59:36.613824",
        "meta_mean_motion": 14.55730116,
        "meta_eccentricity": 0.01827188,
        "meta_inclination": 99.0256,
        "meta_ra_of_asc_node": 222.5796,
        "meta_arg_of_pericenter": 33.5539,
        "meta_mean_anomaly": 327.7073,
        "meta_ephemeris_type": 0,
        "meta_classification_type": "U",
        "meta_norad_cat_id": 31914,
        "meta_element_set_no": 999,
        "meta_rev_at_epoch": 68645,
        "meta_bstar": 0.00015271325,
        "meta_mean_motion_dot": 7.72e-06,
        "meta_mean_motion_ddot": 0,
        "tle_line1": "1 31914U 99025CLR 25358.58306266  .00000772  00000+0  15271-3 0  9996",
        "tle_line2": "2 31914  99.0256 222.5796 0182718  33.5539 327.7073 14.55730116686450"
      },
      "geometry": {
        "type": "Point",
        "coordinates": [
          -165.23585397127349,
          72.93022326978466
        ]
      }
    }
  ]
}